SL-16 R/B               
1 23405U 94077B   26168.33272464  .00000107  00000+0  78919-4 0  9990
2 23405  70.9809 142.8561 0002928 327.7854  32.3089 14.15572187630334
ARIANE 40+ R/B          
1 23561U 95021B   26168.62332944  .00000205  00000+0  79124-4 0  9993
2 23561  98.4412 238.6920 0006488 192.2713 296.4184 14.39833579633624
SL-16 R/B               
1 23705U 95058B   26168.55652230  .00000281  00000+0  16784-3 0  9994
2 23705  71.0220 330.5828 0013785 319.9985  40.0121 14.15508737581988
SL-16 R/B               
1 24298U 96051B   26168.59791688  .00000106  00000+0  83927-4 0  9991
2 24298  70.7641 323.7792 0015501 336.2693  23.7710 14.12445986535758
ORBVIEW 2 (SEASTAR)     
1 24883U 97037A   26168.43817018  .00000154  00000+0  69582-4 0  9999
2 24883  98.8687 335.4641 0003198 115.6178 244.5338 14.35553350522786
SL-16 R/B               
1 25400U 98043G   26168.50325257  .00000030  00000+0  31403-4 0  9994
2 25400  98.8364 122.6652 0010953  85.5266 274.7164 14.26068623453219
SL-16 R/B               
1 25407U 98045B   26168.51843399 -.00000239  00000+0 -96397-4 0  9992
2 25407  71.0117 331.6329 0009368 241.2071 118.8112 14.16203069441235
ISS (ZARYA)             
1 25544U 98067A   26168.51200967  .00010215  00000+0  19142-3 0  9991
2 25544  51.6331 298.4851 0004696 196.4176 163.6661 15.49281356571801
CZ-4B R/B               
1 25732U 99025C   26168.13940020  .00000034  00000+0  37079-4 0  9992
2 25732  98.6484 209.9791 0038061  59.8082   8.1081 14.18283511402263
OKEAN-O                 
1 25860U 99039A   26168.14478607  .00000491  00000+0  70952-4 0  9991
2 25860  97.9317 226.9432 0001603  72.3552 287.7835 14.80467206449107
SL-16 R/B               
1 25861U 99039B   26168.09907524  .00000375  00000+0  54261-4 0  9997
2 25861  97.9838 226.9623 0013486 297.2059  62.7779 14.81845031451580
DELTA 2 R/B             
1 25876U 99041E   26168.45855435  .00000455  00000+0  11122-3 0  9996
2 25876  51.7654 262.7127 0500843 282.8187  71.7250 14.12016533377129
HELIOS 1B               
1 25977U 99064A   26168.31312412  .00001070  00000+0  12299-3 0  9991
2 25977  98.1615  73.4566 0002498  91.1071 269.0431 14.88006711700070
TERRA                   
1 25994U 99068A   26168.57976503  .00000315  00000+0  73025-4 0  9995
2 25994  97.9456 218.1105 0001612 187.9869 308.7485 14.61103398409663
SL-16 R/B               
1 26070U 00006B   26168.48909672 -.00000020  00000+0  14244-4 0  9990
2 26070  71.0020 247.9904 0015538  22.5832 337.5971 14.15834043362689
TITAN 4B R/B            
1 26474U 00047B   26168.59010560  .00002400  00000+0  15143-3 0  9995
2 26474  67.9882 119.4391 0045758 286.7001  72.9129 15.10199225407990
ENVISAT                 
1 27386U 02009A   26168.46733091  .00000061  00000+0  33767-4 0  9999
2 27386  98.3834 119.7795 0001350  88.6788  22.0937 14.39064834273520
IDEFIX & ARIANE 42P R/B 
1 27422U 02021B   26168.40923841  .00000159  00000+0  76979-4 0  9992
2 27422  98.5943 105.8900 0010588 253.1806 106.8216 14.31082156258287
AQUA                    
1 27424U 02022A   26168.60039608  .00000588  00000+0  12663-3 0  9991
2 27424  98.4277 137.8914 0001089  53.4593   1.2304 14.62158570283336
CZ-4B R/B               
1 27432U 02024C   26168.17041999  .00000029  00000+0  37450-4 0  9992
2 27432  98.8700 220.9907 0051204 100.2995 324.9914 14.14564431243306
MIDORI II (ADEOS-II)    
1 27597U 02056A   26168.48807322  .00000188  00000+0  91538-4 0  9996
2 27597  98.7878 127.7504 0002212  76.8845 283.2583 14.29349697224553
H-2A R/B                
1 27601U 02056E   26168.50996931  .00000143  00000+0  64903-4 0  9997
2 27601  98.3312 125.1726 0069192 223.5924 247.3658 14.33822122228412
CZ-4B R/B               
1 28059U 03049C   26168.50629018  .00000214  00000+0  60908-4 0  9997
2 28059  98.6896 167.3655 0046953 287.6003  72.0068 14.55100318201114
CZ-2C R/B               
1 28222U 04012C   26168.16015818  .00082298  00000+0  46194-3 0  9991
2 28222  97.7075 243.8198 0009344 283.2955  76.7268 15.78982321219893
SL-16 R/B               
1 28353U 04021B   26168.01985972 -.00000249  00000+0 -10448-3 0  9998
2 28353  71.0008  24.0403 0007276 255.1788 104.8528 14.14608401136883
CZ-4B R/B               
1 28415U 04035C   26168.59023672  .00006081  00000+0  20525-3 0  9990
2 28415  97.3361 201.6592 0029836 336.5183  23.4694 15.30631305195182
CZ-2C R/B               
1 28480U 04046B   26168.61221076  .00000059  00000+0  37298-4 0  9990
2 28480  98.1945  77.3665 0138506 219.0050 140.1080 14.27026561122759
ARIANE 5 R/B            
1 28499U 04049H   26168.46704358  .00000499  00000+0  61420-4 0  9997
2 28499  98.2720 340.7306 0084480  28.5326 332.0474 14.85449367160602
CZ-2D R/B               
1 28738U 05024B   26168.60183601  .00049136  00000+0  41566-3 0  9994
2 28738  97.3481 188.0507 0003385  53.3879 306.7694 15.69592294155407
ALOS (DAICHI)           
1 28931U 06002A   26168.43084947  .00000849  00000+0  14979-3 0  9996
2 28931  98.1323 123.9974 0001450  57.3793 302.7553 14.70050847 88131
